[{"OBJECT_NAME":"STARLINK-35484","OBJECT_ID":"2025-225P","EPOCH":"2026-03-09T13:51:54.482688","MEAN_MOTION":15.30196186,"ECCENTRICITY":0.0001171,"INCLINATION":53.1594,"RA_OF_ASC_NODE":166.008,"ARG_OF_PERICENTER":21.9323,"MEAN_ANOMALY":338.1728,"EPHEMERIS_TYPE":0,"CLASSIFICATION_TYPE":"U","NORAD_CAT_ID":65923,"ELEMENT_SET_NO":999,"REV_AT_EPOCH":2439,"BSTAR":0.00042425,"MEAN_MOTION_DOT":0.00012225,"MEAN_MOTION_DDOT":0},{"OBJECT_NAME":"OBJECT N","OBJECT_ID":"2019-093N","EPOCH":"2026-03-09T21:41:56.087232","MEAN_MOTION":15.29897693,"ECCENTRICITY":0.0006278,"INCLINATION":98.0505,"RA_OF_ASC_NODE":226.9456,"ARG_OF_PERICENTER":33.3806,"MEAN_ANOMALY":326.7828,"EPHEMERIS_TYPE":0,"CLASSIFICATION_TYPE":"U","NORAD_CAT_ID":44891,"ELEMENT_SET_NO":999,"REV_AT_EPOCH":33957,"BSTAR":0.0010567776,"MEAN_MOTION_DOT":0.00030617,"MEAN_MOTION_DDOT":0}]
